*******************************************************************************
JPL/HORIZONS              823 Sisigambis (A916 GK)         2023-Sep-04 11:08:35
Rec #:     823 (+COV) Soln.date: 2023-Aug-24_20:00:10   # obs: 8275 (1916-2023)
 
IAU76/J2000 helio. ecliptic osc. elements (au, days, deg., period=Julian yrs):
 
  EPOCH=  2457440.5 ! 2016-Feb-22.00 (TDB)         Residual RMS= .26214
   EC= .09016962911865736  QR= 2.020808179217493   TP= 2457007.3821890997
   OM= 255.0294343841428   W=  218.6052462189827   IN= 3.645797267281196
   A= 2.22108235105403     MA= 128.9624055596399   ADIST= 2.421356522890568
   PER= 3.31021            N= .297753642           ANGMOM= .025532364
   DAN= 2.37003            DDN= 2.05801            L= 113.5780974
   B= -2.2738615           MOID= 1.03891003        TP= 2014-Dec-15.8821890997
 
Asteroid physical parameters (km, seconds, rotational period in hours):
   GM= n.a.                RAD= 7.3595             ROTPER= 146.
   H= 11.25                G= .150                 B-V= n.a.
                           ALBEDO= .298            STYP= n.a.

ASTEROID comments: 
1: soln ref.= JPL#65, OCC=0
2: source=ORB
*******************************************************************************


*******************************************************************************
Ephemeris / API_USER Mon Sep  4 11:08:35 2023 Pasadena, USA      / Horizons
*******************************************************************************
Target body name: 823 Sisigambis (A916 GK)        {source: JPL#65}
Center body name: Solar System Barycenter (0)     {source: DE441}
Center-site name: BODY CENTER
*******************************************************************************
Start time      : A.D. 2023-Aug-12 00:00:00.0000 TDB
Stop  time      : A.D. 2023-Aug-13 00:00:00.0000 TDB
Step-size       : 2880 minutes
*******************************************************************************
Center geodetic : 0.0, 0.0, 0.0                   {E-lon(deg),Lat(deg),Alt(km)}
Center cylindric: 0.0, 0.0, 0.0                   {E-lon(deg),Dxy(km),Dz(km)}
Center radii    : (undefined)
Small perturbers: Yes                             {source: SB441-N16}
Output units    : KM-S
Calendar mode   : Mixed Julian/Gregorian
Output type     : GEOMETRIC cartesian states
Output format   : 2 (position and velocity)
Reference frame : Ecliptic of J2000.0
*******************************************************************************
Initial IAU76/J2000 heliocentric ecliptic osculating elements (au, days, deg.):
  EPOCH=  2457440.5 ! 2016-Feb-22.00 (TDB)         Residual RMS= .26214        
   EC= .09016962911865736  QR= 2.020808179217493   TP= 2457007.3821890997      
   OM= 255.0294343841428   W=  218.6052462189827   IN= 3.645797267281196       
  Equivalent ICRF heliocentric cartesian coordinates (au, au/d):
   X=-8.027714440219695E-01  Y=-2.028074162882573E+00  Z=-8.933797320722073E-01
  VX= 9.917723554544514E-03 VY=-4.273978077306340E-03 VZ=-1.109344617176133E-03
Asteroid physical parameters (km, seconds, rotational period in hours):        
   GM= n.a.                RAD= 7.3595             ROTPER= 146.                
   H= 11.25                G= .150                 B-V= n.a.                   
                           ALBEDO= .298            STYP= n.a.                  
*******************************************************************************
JDTDB
   X     Y     Z
   VX    VY    VZ
*******************************************************************************
$$SOE
2460168.500000000 = A.D. 2023-Aug-12 00:00:00.0000 TDB 
 X = 3.015356368705687E+08 Y =-1.864645336221457E+08 Z = 2.174187047080269E+07
 VX= 8.833981934535853E+00 VY= 1.635091191735399E+01 VZ= 2.731252778077256E-01
$$EOE
*******************************************************************************
 
TIME

  Barycentric Dynamical Time ("TDB" or T_eph) output was requested. This
continuous coordinate time is equivalent to the relativistic proper time
of a clock at rest in a reference frame co-moving with the solar system
barycenter but outside the system's gravity well. It is the independent
variable in the solar system relativistic equations of motion.

  TDB runs at a uniform rate of one SI second per second and is independent
of irregularities in Earth's rotation.
 
CALENDAR SYSTEM

  Mixed calendar mode was active such that calendar dates after AD 1582-Oct-15
(if any) are in the modern Gregorian system. Dates prior to 1582-Oct-5 (if any)
are in the Julian calendar system, which is automatically extended for dates
prior to its adoption on 45-Jan-1 BC.  The Julian calendar is useful for
matching historical dates. The Gregorian calendar more accurately corresponds
to the Earth's orbital motion and seasons. A "Gregorian-only" calendar mode is
available if such physical events are the primary interest.

REFERENCE FRAME AND COORDINATES

  Ecliptic at the standard reference epoch

    Reference epoch: J2000.0
    X-Y plane: adopted Earth orbital plane at the reference epoch
               Note: IAU76 obliquity of 84381.448 arcseconds wrt ICRF X-Y plane
    X-axis   : ICRF
    Z-axis   : perpendicular to the X-Y plane in the directional (+ or -) sense
               of Earth's north pole at the reference epoch.

  Symbol meaning:

    JDTDB    Julian Day Number, Barycentric Dynamical Time
      X      X-component of position vector (km)
      Y      Y-component of position vector (km)
      Z      Z-component of position vector (km)
      VX     X-component of velocity vector (km/sec)                           
      VY     Y-component of velocity vector (km/sec)                           
      VZ     Z-component of velocity vector (km/sec)                           

ABERRATIONS AND CORRECTIONS

 Geometric state vectors have NO corrections or aberrations applied.

Computations by ...

    Solar System Dynamics Group, Horizons On-Line Ephemeris System
    4800 Oak Grove Drive, Jet Propulsion Laboratory
    Pasadena, CA  91109   USA

    General site: https://ssd.jpl.nasa.gov/
    Mailing list: https://ssd.jpl.nasa.gov/email_list.html
    System news : https://ssd.jpl.nasa.gov/horizons/news.html
    User Guide  : https://ssd.jpl.nasa.gov/horizons/manual.html
    Connect     : browser        https://ssd.jpl.nasa.gov/horizons/app.html#/x
                  API            https://ssd-api.jpl.nasa.gov/doc/horizons.html
                  command-line   telnet ssd.jpl.nasa.gov 6775
                  e-mail/batch   https://ssd.jpl.nasa.gov/ftp/ssd/hrzn_batch.txt
                  scripts        https://ssd.jpl.nasa.gov/ftp/ssd/SCRIPTS
    Author      : Jon.D.Giorgini@jpl.nasa.gov
*******************************************************************************
